ONEWEB-0267             
1 48985U 21060U   21220.91667824 -.01309646  00000-0 -24484+0 0  9995
2 48985  87.4680 224.3748 0008189 127.6439 198.2150 14.68241197  7081
ONEWEB-0268             
1 48986U 21060V   21220.91667824 -.01325794  00000-0 -22463+0 0  9993
2 48986  87.5270 224.3446 0008924 133.2845 142.8311 14.72566584  7106
ONEWEB-0269             
1 48987U 21060W   21220.83334491 -.01375561  00000-0 -22707+0 0  9994
2 48987  87.5268 224.3689 0008278 117.5619 208.5604 14.73815620  7103
ONEWEB-0270             
1 48988U 21060X   21220.91667824 -.01351967  00000-0 -22728+0 0  9990
2 48988  87.5349 224.3245 0013548 105.0972 176.2352 14.72912753  7130
ONEWEB-0271             
1 48989U 21060Y   21220.91667824 -.01291206  00000-0 -17922+0 0  9990
2 48989  87.5592 224.2855 0009996 136.3171  53.5893 14.81463918  7127
ONEWEB-0272             
1 48990U 21060Z   21220.91667824 -.01327231  00000-0 -24530+0 0  9993
2 48990  87.5076 224.3656 0009437 115.4924  56.7494 14.68776089  7112
ONEWEB-0273             
1 48991U 21060AA  21220.83334491 -.01348336  00000-0 -26303+0 0  9995
2 48991  87.4918 224.3925 0013645 127.1018  21.7348 14.66396082  7092
ONEWEB-0274             
1 48992U 21060AB  21220.58335648 -.01457461  00000-0 -23565+0 0  9990
2 48992  87.5310 224.4535 0010513 129.7266 105.7417 14.74876666  3593
ONEWEB-0275             
1 48993U 21060AC  21220.91667824 -.01378464  00000-0 -29072+0 0  9996
2 48993  87.4669 224.3784 0009256 136.1581 200.4229 14.63042784  7085
ONEWEB-0276             
1 48994U 21060AD  21220.91667824 -.01390869  00000-0 -27288+0 0  9997
2 48994  87.4876 224.3634 0012119 118.1547 206.0750 14.66268324  7101
ONEWEB-0277             
1 48995U 21060AE  21220.83334491 -.01369541  00000-0 -27729+0 0  9993
2 48995  87.4827 224.4076 0011836 136.3807 244.0157 14.64818155  7075
ONEWEB-0278             
1 48996U 21060AF  21220.91667824 -.01323078  00000-0 -21464+0 0  9997
2 48996  87.5444 224.3165 0013960 108.2185 197.8935 14.74371062  7135
ONEWEB-0279             
1 48997U 21060AG  21220.91667824 -.01365123  00000-0 -26984+0 0  9997
2 48997  87.4940 224.3728 0013409 123.0564 163.1673 14.65855848  7106
ONEWEB-0280             
1 48998U 21060AH  21220.58335648 -.01473304  00000-0 -30709+0 0  9998
2 48998  87.4576 224.4747 0007513 129.0252 179.7466 14.63829304  3579
ONEWEB-0281             
1 48999U 21060AJ  21220.83334491 -.01359325  00000-0 -22582+0 0  9998
2 48999  87.5420 224.3564 0011672 128.6744  20.2079 14.73466043  7119
ONEWEB-0282             
1 49000U 21060AK  21220.83334491 -.01387404  00000-0 -23950+0 0  9991
2 49000  87.5164 224.3524 0013995 115.6680 339.1610 14.71845786  7115
ONEWEB-0283             
1 49001U 21060AL  21220.83334491 -.01384833  00000-0 -23806+0 0  9995
2 49001  87.5185 224.3566 0013611 113.0509   7.5474 14.72025729  7125
ONEWEB-0284             
1 49002U 21060AM  21220.83334491 -.01372739  00000-0 -25821+0 0  9997
2 49002  87.5052 224.3786 0008889 113.2970 290.6725 14.68121116  7090
